GOES 12                 
1 26871U 01031A   24111.52509946  .00000024  00000+0  00000+0 0  9992
2 26871  10.7425  43.5273 0007032 311.4253 253.0799  0.99137682 82954
